[{"OBJECT_NAME":"YAM-7","OBJECT_ID":"2024-149AN","EPOCH":"2026-03-09T17:13:55.117920","MEAN_MOTION":15.30304554,"ECCENTRICITY":0.00019733,"INCLINATION":97.3828,"RA_OF_ASC_NODE":149.4631,"ARG_OF_PERICENTER":296.5121,"MEAN_ANOMALY":63.5918,"EPHEMERIS_TYPE":0,"CLASSIFICATION_TYPE":"U","NORAD_CAT_ID":60504,"ELEMENT_SET_NO":999,"REV_AT_EPOCH":8683,"BSTAR":0.00030984439,"MEAN_MOTION_DOT":9.009e-5,"MEAN_MOTION_DDOT":0},{"OBJECT_NAME":"STARLINK-35828","OBJECT_ID":"2025-254D","EPOCH":"2026-03-09T17:27:41.011200","MEAN_MOTION":15.30207958,"ECCENTRICITY":0.00012445,"INCLINATION":53.1582,"RA_OF_ASC_NODE":232.1236,"ARG_OF_PERICENTER":81.2537,"MEAN_ANOMALY":278.8604,"EPHEMERIS_TYPE":0,"CLASSIFICATION_TYPE":"U","NORAD_CAT_ID":66351,"ELEMENT_SET_NO":999,"REV_AT_EPOCH":1898,"BSTAR":0.00092762101,"MEAN_MOTION_DOT":0.00027222,"MEAN_MOTION_DDOT":0}]
